IRIDIUM 116             
1 43072U 17083C   24016.92230322  .00000297  00000+0  98836-4 0  9996
2 43072  86.3988 330.7408 0002115  87.4026 272.7412 14.34218201317711
IRIDIUM 130             
1 43073U 17083D   24016.89059053 -.00000072  00000+0 -32814-4 0  9990
2 43073  86.3993 330.9437 0001957  79.8889 280.2528 14.34217612317657
IRIDIUM 151             
1 43074U 17083E   24016.93498574  .00000577  00000+0  19910-3 0  9990
2 43074  86.3991 330.7730 0002394  87.7166 272.4304 14.34219947317683
IRIDIUM 134             
1 43075U 17083F   24016.90326316  .00000592  00000+0  20421-3 0  9998
2 43075  86.3993 330.7824 0002047  82.2502 277.8926 14.34224675317648
IRIDIUM 137             
1 43076U 17083G   24016.77642465 -.00000045  00000+0 -23307-4 0  9992
2 43076  86.3993 330.9104 0002086  96.6507 263.4926 14.34216496317697
IRIDIUM 141             
1 43077U 17083H   24016.90959948  .00000585  00000+0  20159-3 0  9993
2 43077  86.4001 330.7370 0001977  76.2067 283.9348 14.34236948317717
IRIDIUM 153             
1 43078U 17083J   24016.30365027 -.00000063  00000+0 -29656-4 0  9992
2 43078  86.3976 299.4416 0002343  79.8208 280.3251 14.34216986318731
IRIDIUM 131             
1 43079U 17083K   24016.89693286  .00000036  00000+0  57638-5 0  9998
2 43079  86.3997 330.8683 0002169  89.4420 270.7024 14.34219148317643
